TIGER-8                 
1 59120U 24043Y   26196.97637666  .00005276  00000+0  11312-3 0  9994
2 59120  97.5573 346.7531 0008918 100.4954 259.7299 15.45176619132232
TIGER-7                 
1 59141U 24043AV  26196.94390094  .00006813  00000+0  12609-3 0  9993
2 59141  97.5516 349.2314 0006774  74.6462 285.5537 15.49359171132426
